{
"type": "FeatureCollection",
"name": "Petrol_Stations",
"crs": { "type": "name", "properties": { "name": "urn:ogc:def:crs:OGC:1.3:CRS84" } },
"features": [
{ "type": "Feature", "properties": { "objectid": 2383, "feature_type": "PETROL STATION", "industry_id": null, "station_name": "MALANDARI", "station_owner": "UNITED", "station_description": "AN ESTABLISHMENT WHERE A RANGE OF FUEL PRODUCTS CAN BE PURCHASED BY MOTORISTS", "station_address": "330 ROBINSON ROAD", "station_suburb": "BORROLOOLA", "station_postcode": "0854", "station_state": "NT", "operational_status": "OPERATIONAL", "spatial_confidence": "1", "gnaf_assignment_method": "GNAF ADDRESS MATCH", "station_revised_date": "25/07/2011", "gnaf_formatted_address": "330 ROBINSON ROAD", "gnaf_address_detail_pid": "GANT_703849468", "gnaf_confidence": "2", "gnaf_suburb": "BORROLOOLA", "gnaf_postcode": "0854", "distance_to_gnaf": 14.19999981 }, "geometry": { "type": "Point", "coordinates": [ 136.307922363000102, -16.056701659497801 ] } },
{ "type": "Feature", "properties": { "objectid": 2384, "feature_type": "PETROL STATION", "industry_id": "312", "station_name": "BP HOWARD SPRINGS", "station_owner": "BP", "station_description": "AN ESTABLISHMENT WHERE A RANGE OF FUEL PRODUCTS CAN BE PURCHASED BY MOTORISTS", "station_address": "150 WHITEWOOD ROAD", "station_suburb": "HOWARD SPRINGS", "station_postcode": "0835", "station_state": "NT", "operational_status": "OPERATIONAL", "spatial_confidence": "1", "gnaf_assignment_method": "GNAF ADDRESS MATCH", "station_revised_date": "25/07/2011", "gnaf_formatted_address": "150 WHITEWOOD ROAD", "gnaf_address_detail_pid": "GANT_703868672", "gnaf_confidence": "2", "gnaf_suburb": "HOWARD SPRINGS", "gnaf_postcode": "0835", "distance_to_gnaf": 81.59999847 }, "geometry": { "type": "Point", "coordinates": [ 131.031438, -12.496558999600806 ] } },
{ "type": "Feature", "properties": { "objectid": 2385, "feature_type": "PETROL STATION", "industry_id": "9300", "station_name": "BP BAGOT ROAD", "station_owner": "BP", "station_description": "AN ESTABLISHMENT WHERE A RANGE OF FUEL PRODUCTS CAN BE PURCHASED BY MOTORISTS", "station_address": "331 BAGOT ROAD", "station_suburb": "COCONUT GROVE", "station_postcode": "0810", "station_state": "NT", "operational_status": "OPERATIONAL", "spatial_confidence": "5", "gnaf_assignment_method": "GNAF ADDRESS MATCH", "station_revised_date": "25/07/2011", "gnaf_formatted_address": "331 BAGOT ROAD", "gnaf_address_detail_pid": "GANT_703835116", "gnaf_confidence": "1", "gnaf_suburb": "COCONUT GROVE", "gnaf_postcode": "0810", "distance_to_gnaf": 9.10000038 }, "geometry": { "type": "Point", "coordinates": [ 130.855767, -12.395071999603873 ] } },
{ "type": "Feature", "properties": { "objectid": 2386, "feature_type": "PETROL STATION", "industry_id": null, "station_name": "ADELAIDE RIVER AUTO PORT", "station_owner": "UNITED", "station_description": "AN ESTABLISHMENT WHERE A RANGE OF FUEL PRODUCTS CAN BE PURCHASED BY MOTORISTS", "station_address": "122 STUART HIGHWAY", "station_suburb": "ADELAIDE RIVER", "station_postcode": "0846", "station_state": "NT", "operational_status": "OPERATIONAL", "spatial_confidence": "5", "gnaf_assignment_method": "GNAF ADDRESS MATCH", "station_revised_date": "25/07/2011", "gnaf_formatted_address": "122 STUART HIGHWAY", "gnaf_address_detail_pid": "GANT_703845849", "gnaf_confidence": "1", "gnaf_suburb": "ADELAIDE RIVER", "gnaf_postcode": "0846", "distance_to_gnaf": 1.7999999500000001 }, "geometry": { "type": "Point", "coordinates": [ 131.104675293000014, -13.237792968578798 ] } },
{ "type": "Feature", "properties": { "objectid": 2387, "feature_type": "PETROL STATION", "industry_id": "9303", "station_name": "BP THE GAP", "station_owner": "BP", "station_description": "AN ESTABLISHMENT WHERE A RANGE OF FUEL PRODUCTS CAN BE PURCHASED BY MOTORISTS", "station_address": "73 GAP ROAD", "station_suburb": "THE GAP", "station_postcode": "0870", "station_state": "NT", "operational_status": "OPERATIONAL", "spatial_confidence": "5", "gnaf_assignment_method": "GNAF ADDRESS MATCH", "station_revised_date": "25/07/2011", "gnaf_formatted_address": "73 GAP ROAD", "gnaf_address_detail_pid": "GANT_717245082", "gnaf_confidence": "2", "gnaf_suburb": "THE GAP", "gnaf_postcode": "0870", "distance_to_gnaf": 0.0 }, "geometry": { "type": "Point", "coordinates": [ 133.872587, -23.716985999304484 ] } },
{ "type": "Feature", "properties": { "objectid": 2388, "feature_type": "PETROL STATION", "industry_id": null, "station_name": "COLES EXPRESS ALICE SPRINGS TRUCK STOP", "station_owner": "SHELL", "station_description": "AN ESTABLISHMENT WHERE A RANGE OF FUEL PRODUCTS CAN BE PURCHASED BY MOTORISTS", "station_address": "11 LILBILI STREET", "station_suburb": "BRAITLING", "station_postcode": "0870", "station_state": "NT", "operational_status": "OPERATIONAL", "spatial_confidence": "5", "gnaf_assignment_method": "GNAF ADDRESS MATCH", "station_revised_date": "25/07/2011", "gnaf_formatted_address": "11 LILBILI STREET", "gnaf_address_detail_pid": "GANT_717753905", "gnaf_confidence": "1", "gnaf_suburb": "BRAITLING", "gnaf_postcode": "0870", "distance_to_gnaf": 0.0 }, "geometry": { "type": "Point", "coordinates": [ 133.864021, -23.667462999305567 ] } },
{ "type": "Feature", "properties": { "objectid": 2389, "feature_type": "PETROL STATION", "industry_id": "2395", "station_name": "BATCHELOR ", "station_owner": "BP", "station_description": "AN ESTABLISHMENT WHERE A RANGE OF FUEL PRODUCTS CAN BE PURCHASED BY MOTORISTS", "station_address": "27 RUM JUNGLE ROAD", "station_suburb": "BATCHELOR", "station_postcode": "0845", "station_state": "NT", "operational_status": "OPERATIONAL", "spatial_confidence": "1", "gnaf_assignment_method": "GNAF ADDRESS MATCH", "station_revised_date": "25/07/2011", "gnaf_formatted_address": "27 RUM JUNGLE ROAD", "gnaf_address_detail_pid": "GANT_717250198", "gnaf_confidence": "1", "gnaf_suburb": "BATCHELOR", "gnaf_postcode": "0845", "distance_to_gnaf": 6.5 }, "geometry": { "type": "Point", "coordinates": [ 131.024494000000118, -13.046300999584497 ] } },
{ "type": "Feature", "properties": { "objectid": 2390, "feature_type": "PETROL STATION", "industry_id": null, "station_name": "UNITED TENNANT CREEK", "station_owner": "UNITED", "station_description": "AN ESTABLISHMENT WHERE A RANGE OF FUEL PRODUCTS CAN BE PURCHASED BY MOTORISTS", "station_address": "222 PATERSON STREET", "station_suburb": "TENNANT CREEK", "station_postcode": "0860", "station_state": "NT", "operational_status": "OPERATIONAL", "spatial_confidence": "5", "gnaf_assignment_method": "GNAF ADDRESS MATCH", "station_revised_date": "25/07/2011", "gnaf_formatted_address": "222 PATERSON STREET", "gnaf_address_detail_pid": "GANT_703855749", "gnaf_confidence": "1", "gnaf_suburb": "TENNANT CREEK", "gnaf_postcode": "0860", "distance_to_gnaf": 13.89999962 }, "geometry": { "type": "Point", "coordinates": [ 134.192369976, -19.636472357402077 ] } },
{ "type": "Feature", "properties": { "objectid": 2391, "feature_type": "PETROL STATION", "industry_id": null, "station_name": "KATHERINE", "station_owner": "UNITED", "station_description": "AN ESTABLISHMENT WHERE A RANGE OF FUEL PRODUCTS CAN BE PURCHASED BY MOTORISTS", "station_address": "37 KATHERINE TERRACE", "station_suburb": "KATHERINE", "station_postcode": "0850", "station_state": "NT", "operational_status": "OPERATIONAL", "spatial_confidence": "1", "gnaf_assignment_method": "GNAF ADDRESS MATCH", "station_revised_date": "25/07/2011", "gnaf_formatted_address": "37 KATHERINE TERRACE", "gnaf_address_detail_pid": "GANT_703864305", "gnaf_confidence": "1", "gnaf_suburb": "KATHERINE", "gnaf_postcode": "0850", "distance_to_gnaf": 9.0 }, "geometry": { "type": "Point", "coordinates": [ 132.26068710100003, -14.462891814543092 ] } },
{ "type": "Feature", "properties": { "objectid": 2392, "feature_type": "PETROL STATION", "industry_id": null, "station_name": "CALTEX HUMPTY DOO", "station_owner": "CALTEX", "station_description": "AN ESTABLISHMENT WHERE A RANGE OF FUEL PRODUCTS CAN BE PURCHASED BY MOTORISTS", "station_address": "600 ARNHEM HIGHWAY", "station_suburb": "HUMPTY DOO", "station_postcode": "0836", "station_state": "NT", "operational_status": "OPERATIONAL", "spatial_confidence": "5", "gnaf_assignment_method": "GNAF ADDRESS MATCH", "station_revised_date": "25/07/2011", "gnaf_formatted_address": "600 ARNHEM HIGHWAY", "gnaf_address_detail_pid": "GANT_703864877", "gnaf_confidence": "2", "gnaf_suburb": "HUMPTY DOO", "gnaf_postcode": "0836", "distance_to_gnaf": 67.19999695 }, "geometry": { "type": "Point", "coordinates": [ 131.127673, -12.578328999598368 ] } },
{ "type": "Feature", "properties": { "objectid": 2393, "feature_type": "PETROL STATION", "industry_id": null, "station_name": "WOOLWORTHS CALTEX COOLALINGA", "station_owner": "CALTEX", "station_description": "AN ESTABLISHMENT WHERE A RANGE OF FUEL PRODUCTS CAN BE PURCHASED BY MOTORISTS", "station_address": "15 HENNING ROAD", "station_suburb": "COOLALINGA", "station_postcode": "0839", "station_state": "NT", "operational_status": "OPERATIONAL", "spatial_confidence": "5", "gnaf_assignment_method": "GNAF ADDRESS MATCH", "station_revised_date": "25/07/2011", "gnaf_formatted_address": "15 HENNING ROAD", "gnaf_address_detail_pid": "GANT_703830666", "gnaf_confidence": "2", "gnaf_suburb": "VIRGINIA", "gnaf_postcode": "0834", "distance_to_gnaf": 118.30000305 }, "geometry": { "type": "Point", "coordinates": [ 131.043334, -12.525215999599954 ] } },
{ "type": "Feature", "properties": { "objectid": 2394, "feature_type": "PETROL STATION", "industry_id": "6501", "station_name": "ALICE SPRINGS ", "station_owner": "BP", "station_description": "AN ESTABLISHMENT WHERE A RANGE OF FUEL PRODUCTS CAN BE PURCHASED BY MOTORISTS", "station_address": "20 WHITTAKER STREET", "station_suburb": "ALICE SPRINGS", "station_postcode": "0870", "station_state": "NT", "operational_status": "OPERATIONAL", "spatial_confidence": "5", "gnaf_assignment_method": "GNAF ADDRESS MATCH", "station_revised_date": "25/07/2011", "gnaf_formatted_address": "20 WHITTAKER STREET", "gnaf_address_detail_pid": "GANT_718014209", "gnaf_confidence": "0", "gnaf_suburb": "ALICE SPRINGS", "gnaf_postcode": "0870", "distance_to_gnaf": 17.39999962 }, "geometry": { "type": "Point", "coordinates": [ 133.874878543000023, -23.694566188304957 ] } },
{ "type": "Feature", "properties": { "objectid": 2395, "feature_type": "PETROL STATION", "industry_id": null, "station_name": "CALTEX JINGILI", "station_owner": "CALTEX", "station_description": "AN ESTABLISHMENT WHERE A RANGE OF FUEL PRODUCTS CAN BE PURCHASED BY MOTORISTS", "station_address": "231 MCMILLANS ROAD", "station_suburb": "JINGILI", "station_postcode": "0810", "station_state": "NT", "operational_status": "OPERATIONAL", "spatial_confidence": "5", "gnaf_assignment_method": "GNAF ADDRESS MATCH", "station_revised_date": "25/07/2011", "gnaf_formatted_address": "231 MCMILLANS ROAD", "gnaf_address_detail_pid": "GANT_703848104", "gnaf_confidence": "1", "gnaf_suburb": "JINGILI", "gnaf_postcode": "0810", "distance_to_gnaf": 1.2999999500000001 }, "geometry": { "type": "Point", "coordinates": [ 130.877952, -12.39481399960385 ] } },
{ "type": "Feature", "properties": { "objectid": 2396, "feature_type": "PETROL STATION", "industry_id": "8250", "station_name": "BP LUDMILLA", "station_owner": "BP", "station_description": "AN ESTABLISHMENT WHERE A RANGE OF FUEL PRODUCTS CAN BE PURCHASED BY MOTORISTS", "station_address": "25 BAGOT ROAD", "station_suburb": "LUDMILLA", "station_postcode": "0820", "station_state": "NT", "operational_status": "OPERATIONAL", "spatial_confidence": "5", "gnaf_assignment_method": "GNAF ADDRESS MATCH", "station_revised_date": "25/07/2011", "gnaf_formatted_address": "25 BAGOT ROAD", "gnaf_address_detail_pid": "GANT_703827055", "gnaf_confidence": "1", "gnaf_suburb": "LUDMILLA", "gnaf_postcode": "0820", "distance_to_gnaf": 4.0 }, "geometry": { "type": "Point", "coordinates": [ 130.855966, -12.426892999602895 ] } },
{ "type": "Feature", "properties": { "objectid": 2397, "feature_type": "PETROL STATION", "industry_id": "411881", "station_name": "MOBIL YULARA", "station_owner": "7-ELEVEN PTY LTD", "station_description": "AN ESTABLISHMENT WHERE A RANGE OF FUEL PRODUCTS CAN BE PURCHASED BY MOTORISTS", "station_address": "257 YULARA DRIVE", "station_suburb": "YULARA", "station_postcode": "0872", "station_state": "NT", "operational_status": "OPERATIONAL", "spatial_confidence": "5", "gnaf_assignment_method": "GNAF ADDRESS MATCH", "station_revised_date": "13/07/2012", "gnaf_formatted_address": "257 YULARA DRIVE", "gnaf_address_detail_pid": "GANT_703837849", "gnaf_confidence": "1", "gnaf_suburb": "YULARA", "gnaf_postcode": "0872", "distance_to_gnaf": 0.0 }, "geometry": { "type": "Point", "coordinates": [ 130.990057, -25.24011799927154 ] } },
{ "type": "Feature", "properties": { "objectid": 2398, "feature_type": "PETROL STATION", "industry_id": "99", "station_name": "ADELAIDE RIVER INN", "station_owner": "BP", "station_description": "AN ESTABLISHMENT WHERE A RANGE OF FUEL PRODUCTS CAN BE PURCHASED BY MOTORISTS", "station_address": "106 STUART HIGHWAY", "station_suburb": "ADELAIDE RIVER", "station_postcode": "0846", "station_state": "NT", "operational_status": "OPERATIONAL", "spatial_confidence": "5", "gnaf_assignment_method": "GNAF ADDRESS MATCH", "station_revised_date": "25/07/2011", "gnaf_formatted_address": "106 STUART HIGHWAY", "gnaf_address_detail_pid": "GANT_715276092", "gnaf_confidence": "2", "gnaf_suburb": "ADELAIDE RIVER", "gnaf_postcode": "0846", "distance_to_gnaf": 0.1 }, "geometry": { "type": "Point", "coordinates": [ 131.106459, -13.238594999578815 ] } },
{ "type": "Feature", "properties": { "objectid": 2399, "feature_type": "PETROL STATION", "industry_id": "9301", "station_name": "BP FANNIE BAY", "station_owner": "BP", "station_description": "AN ESTABLISHMENT WHERE A RANGE OF FUEL PRODUCTS CAN BE PURCHASED BY MOTORISTS", "station_address": "88 ROSS SMITH AVENUE", "station_suburb": "FANNIE BAY", "station_postcode": "0820", "station_state": "NT", "operational_status": "OPERATIONAL", "spatial_confidence": "5", "gnaf_assignment_method": "GNAF ADDRESS MATCH", "station_revised_date": "25/07/2011", "gnaf_formatted_address": "88 ROSS SMITH AVENUE", "gnaf_address_detail_pid": "GANT_703840811", "gnaf_confidence": "1", "gnaf_suburb": "FANNIE BAY", "gnaf_postcode": "0820", "distance_to_gnaf": 4.0 }, "geometry": { "type": "Point", "coordinates": [ 130.838944, -12.424781999602947 ] } },
{ "type": "Feature", "properties": { "objectid": 2400, "feature_type": "PETROL STATION", "industry_id": null, "station_name": "BP TENNANT CREEK", "station_owner": "BP", "station_description": "AN ESTABLISHMENT WHERE A RANGE OF FUEL PRODUCTS CAN BE PURCHASED BY MOTORISTS", "station_address": "216 PATERSON STREET", "station_suburb": "TENNANT CREEK", "station_postcode": "0860", "station_state": "NT", "operational_status": "OPERATIONAL", "spatial_confidence": "5", "gnaf_assignment_method": "GNAF ADDRESS MATCH", "station_revised_date": "25/07/2011", "gnaf_formatted_address": "216 PATERSON STREET", "gnaf_address_detail_pid": "GANT_703869522", "gnaf_confidence": "2", "gnaf_suburb": "TENNANT CREEK", "gnaf_postcode": "0860", "distance_to_gnaf": 29.39999962 }, "geometry": { "type": "Point", "coordinates": [ 134.192462, -19.637059999402094 ] } },
{ "type": "Feature", "properties": { "objectid": 2401, "feature_type": "PETROL STATION", "industry_id": null, "station_name": "COLES EXPRESS ALICE SPRINGS MOUNT GILLEN", "station_owner": "SHELL", "station_description": "AN ESTABLISHMENT WHERE A RANGE OF FUEL PRODUCTS CAN BE PURCHASED BY MOTORISTS", "station_address": "6 LARAPINTA DRIVE", "station_suburb": "CICCONE", "station_postcode": "0870", "station_state": "NT", "operational_status": "OPERATIONAL", "spatial_confidence": "5", "gnaf_assignment_method": "GNAF ADDRESS MATCH", "station_revised_date": "25/07/2011", "gnaf_formatted_address": "6 LARAPINTA DRIVE", "gnaf_address_detail_pid": "GANT_717247405", "gnaf_confidence": "1", "gnaf_suburb": "CICCONE", "gnaf_postcode": "0870", "distance_to_gnaf": 0.0 }, "geometry": { "type": "Point", "coordinates": [ 133.87153, -23.701218999304853 ] } },
{ "type": "Feature", "properties": { "objectid": 2402, "feature_type": "PETROL STATION", "industry_id": null, "station_name": "WOOLWORTHS CALTEX ALICE SPRINGS", "station_owner": "CALTEX", "station_description": "AN ESTABLISHMENT WHERE A RANGE OF FUEL PRODUCTS CAN BE PURCHASED BY MOTORISTS", "station_address": "1 WILLS TERRACE", "station_suburb": "ALICE SPRINGS", "station_postcode": "0870", "station_state": "NT", "operational_status": "OPERATIONAL", "spatial_confidence": "5", "gnaf_assignment_method": "GNAF ADDRESS MATCH", "station_revised_date": "25/07/2011", "gnaf_formatted_address": "1 WILLS TERRACE", "gnaf_address_detail_pid": "GANT_703845118", "gnaf_confidence": "0", "gnaf_suburb": "ALICE SPRINGS", "gnaf_postcode": "0870", "distance_to_gnaf": 1.3999999800000003 }, "geometry": { "type": "Point", "coordinates": [ 133.880497000000105, -23.695639999304959 ] } },
{ "type": "Feature", "properties": { "objectid": 2403, "feature_type": "PETROL STATION", "industry_id": "411885", "station_name": "MOBIL JABIRU", "station_owner": "7-ELEVEN PTY LTD", "station_description": "AN ESTABLISHMENT WHERE A RANGE OF FUEL PRODUCTS CAN BE PURCHASED BY MOTORISTS", "station_address": "1 LAKESIDE DRIVE", "station_suburb": "JABIRU", "station_postcode": "0886", "station_state": "NT", "operational_status": "OPERATIONAL", "spatial_confidence": "5", "gnaf_assignment_method": "GNAF ADDRESS MATCH", "station_revised_date": "13/07/2012", "gnaf_formatted_address": "1 LAKESIDE DRIVE", "gnaf_address_detail_pid": "GANT_703845915", "gnaf_confidence": "1", "gnaf_suburb": "JABIRU", "gnaf_postcode": "0886", "distance_to_gnaf": 4.5 }, "geometry": { "type": "Point", "coordinates": [ 132.834666, -12.670083999595667 ] } },
{ "type": "Feature", "properties": { "objectid": 2404, "feature_type": "PETROL STATION", "industry_id": null, "station_name": "COLES EXPRESS PALMERSTON", "station_owner": "SHELL", "station_description": "AN ESTABLISHMENT WHERE A RANGE OF FUEL PRODUCTS CAN BE PURCHASED BY MOTORISTS", "station_address": "2 YARRAWONGA ROAD", "station_suburb": "YARRAWONGA", "station_postcode": "0830", "station_state": "NT", "operational_status": "OPERATIONAL", "spatial_confidence": "1", "gnaf_assignment_method": "GNAF ADDRESS MATCH", "station_revised_date": "25/07/2011", "gnaf_formatted_address": "2 YARRAWONGA ROAD", "gnaf_address_detail_pid": "GANT_703845097", "gnaf_confidence": "2", "gnaf_suburb": "YARRAWONGA", "gnaf_postcode": "0830", "distance_to_gnaf": 22.39999962 }, "geometry": { "type": "Point", "coordinates": [ 130.983928000000105, -12.473510999601535 ] } },
{ "type": "Feature", "properties": { "objectid": 2405, "feature_type": "PETROL STATION", "industry_id": null, "station_name": "DARWIN RIVER", "station_owner": "UNITED", "station_description": "AN ESTABLISHMENT WHERE A RANGE OF FUEL PRODUCTS CAN BE PURCHASED BY MOTORISTS", "station_address": "175 DARWIN RIVER ROAD", "station_suburb": "DARWIN RIVER", "station_postcode": "0841", "station_state": "NT", "operational_status": "OPERATIONAL", "spatial_confidence": "1", "gnaf_assignment_method": "GNAF ADDRESS MATCH", "station_revised_date": "25/07/2011", "gnaf_formatted_address": "175 DARWIN RIVER ROAD", "gnaf_address_detail_pid": "GANT_703848745", "gnaf_confidence": "2", "gnaf_suburb": "DARWIN RIVER", "gnaf_postcode": "0841", "distance_to_gnaf": 340.79998779 }, "geometry": { "type": "Point", "coordinates": [ 130.962624786000106, -12.780284987592355 ] } },
{ "type": "Feature", "properties": { "objectid": 2406, "feature_type": "PETROL STATION", "industry_id": "9353", "station_name": "BP KATHERINE", "station_owner": "BP", "station_description": "AN ESTABLISHMENT WHERE A RANGE OF FUEL PRODUCTS CAN BE PURCHASED BY MOTORISTS", "station_address": "8 KATHERINE TERRACE", "station_suburb": "KATHERINE SOUTH", "station_postcode": "0850", "station_state": "NT", "operational_status": "OPERATIONAL", "spatial_confidence": "5", "gnaf_assignment_method": "GNAF ADDRESS MATCH", "station_revised_date": "25/07/2011", "gnaf_formatted_address": "8 KATHERINE TERRACE", "gnaf_address_detail_pid": "GANT_717246696", "gnaf_confidence": "1", "gnaf_suburb": "KATHERINE SOUTH", "gnaf_postcode": "0850", "distance_to_gnaf": 1.5 }, "geometry": { "type": "Point", "coordinates": [ 132.264721, -14.466884999542923 ] } },
{ "type": "Feature", "properties": { "objectid": 2407, "feature_type": "PETROL STATION", "industry_id": null, "station_name": "CALTEX COOLALINGA", "station_owner": "CALTEX", "station_description": "AN ESTABLISHMENT WHERE A RANGE OF FUEL PRODUCTS CAN BE PURCHASED BY MOTORISTS", "station_address": "465 STUART HIGHWAY", "station_suburb": "COOLALINGA", "station_postcode": "0839", "station_state": "NT", "operational_status": "OPERATIONAL", "spatial_confidence": "5", "gnaf_assignment_method": "GNAF ADDRESS MATCH", "station_revised_date": "25/07/2011", "gnaf_formatted_address": "465 STUART HIGHWAY", "gnaf_address_detail_pid": "GANT_703858496", "gnaf_confidence": "2", "gnaf_suburb": "COOLALINGA", "gnaf_postcode": "0839", "distance_to_gnaf": 100.5 }, "geometry": { "type": "Point", "coordinates": [ 131.043688, -12.523513999600041 ] } },
{ "type": "Feature", "properties": { "objectid": 2408, "feature_type": "PETROL STATION", "industry_id": null, "station_name": "SHELL MATARANKA", "station_owner": "SHELL", "station_description": "AN ESTABLISHMENT WHERE A RANGE OF FUEL PRODUCTS CAN BE PURCHASED BY MOTORISTS", "station_address": "14 ROPER TERRACE", "station_suburb": "MATARANKA", "station_postcode": "0852", "station_state": "NT", "operational_status": "OPERATIONAL", "spatial_confidence": "5", "gnaf_assignment_method": "GNAF ADDRESS MATCH", "station_revised_date": "25/07/2011", "gnaf_formatted_address": "14 ROPER TERRACE", "gnaf_address_detail_pid": "GANT_716697863", "gnaf_confidence": "1", "gnaf_suburb": "MATARANKA", "gnaf_postcode": "0852", "distance_to_gnaf": 1.6000000200000002 }, "geometry": { "type": "Point", "coordinates": [ 133.066197000000102, -14.922942999529875 ] } },
{ "type": "Feature", "properties": { "objectid": 2409, "feature_type": "PETROL STATION", "industry_id": null, "station_name": "CALTEX PALMERSTON", "station_owner": "CALTEX", "station_description": "AN ESTABLISHMENT WHERE A RANGE OF FUEL PRODUCTS CAN BE PURCHASED BY MOTORISTS", "station_address": "71 CHUNG WAH TERRACE", "station_suburb": "GUNN", "station_postcode": "0830", "station_state": "NT", "operational_status": "OPERATIONAL", "spatial_confidence": "1", "gnaf_assignment_method": "GNAF ADDRESS MATCH", "station_revised_date": "25/07/2011", "gnaf_formatted_address": "71 CHUNG WAH TERRACE", "gnaf_address_detail_pid": "GANT_703866244", "gnaf_confidence": "1", "gnaf_suburb": "PALMERSTON CITY", "gnaf_postcode": "0830", "distance_to_gnaf": 7.5999999000000003 }, "geometry": { "type": "Point", "coordinates": [ 130.985872, -12.482140999601251 ] } },
{ "type": "Feature", "properties": { "objectid": 2410, "feature_type": "PETROL STATION", "industry_id": "9348", "station_name": "BP CASUARINA CITYWAY", "station_owner": "BP", "station_description": "AN ESTABLISHMENT WHERE A RANGE OF FUEL PRODUCTS CAN BE PURCHASED BY MOTORISTS", "station_address": "274 TROWER ROAD", "station_suburb": "CASUARINA", "station_postcode": "0810", "station_state": "NT", "operational_status": "OPERATIONAL", "spatial_confidence": "5", "gnaf_assignment_method": "GNAF ADDRESS MATCH", "station_revised_date": "25/07/2011", "gnaf_formatted_address": "274 TROWER ROAD", "gnaf_address_detail_pid": "GANT_703829167", "gnaf_confidence": "0", "gnaf_suburb": "CASUARINA", "gnaf_postcode": "0810", "distance_to_gnaf": 3.5 }, "geometry": { "type": "Point", "coordinates": [ 130.883804, -12.373519999604479 ] } },
{ "type": "Feature", "properties": { "objectid": 2411, "feature_type": "PETROL STATION", "industry_id": "11145", "station_name": "INDERVON PTY LTD", "station_owner": "CALTEX", "station_description": "AN ESTABLISHMENT WHERE A RANGE OF FUEL PRODUCTS CAN BE PURCHASED BY MOTORISTS", "station_address": "337 STUART HIGHWAY", "station_suburb": "STUART", "station_postcode": "0870", "station_state": "NT", "operational_status": "OPERATIONAL", "spatial_confidence": "1", "gnaf_assignment_method": "GNAF ADDRESS MATCH", "station_revised_date": "25/07/2011", "gnaf_formatted_address": "337 STUART HIGHWAY", "gnaf_address_detail_pid": "GANT_717754033", "gnaf_confidence": "0", "gnaf_suburb": "STUART", "gnaf_postcode": "0870", "distance_to_gnaf": 0.0 }, "geometry": { "type": "Point", "coordinates": [ 133.864047, -23.664635999305663 ] } },
{ "type": "Feature", "properties": { "objectid": 2412, "feature_type": "PETROL STATION", "industry_id": null, "station_name": "COLES EXPRESS ALICE SPRINGS GAP ROAD", "station_owner": "SHELL", "station_description": "AN ESTABLISHMENT WHERE A RANGE OF FUEL PRODUCTS CAN BE PURCHASED BY MOTORISTS", "station_address": "2 BAGOT STREET", "station_suburb": "THE GAP", "station_postcode": "0870", "station_state": "NT", "operational_status": "OPERATIONAL", "spatial_confidence": "5", "gnaf_assignment_method": "GNAF ADDRESS MATCH", "station_revised_date": "25/07/2011", "gnaf_formatted_address": "2 BAGOT STREET", "gnaf_address_detail_pid": "GANT_717241333", "gnaf_confidence": "1", "gnaf_suburb": "THE GAP", "gnaf_postcode": "0870", "distance_to_gnaf": 0.0 }, "geometry": { "type": "Point", "coordinates": [ 133.878981, -23.707517999304674 ] } },
{ "type": "Feature", "properties": { "objectid": 2413, "feature_type": "PETROL STATION", "industry_id": "355", "station_name": "BP LUBE CENTRE", "station_owner": "BP", "station_description": "AN ESTABLISHMENT WHERE A RANGE OF FUEL PRODUCTS CAN BE PURCHASED BY MOTORISTS", "station_address": "538 STUART HIGHWAY", "station_suburb": "WINNELLIE", "station_postcode": "0820", "station_state": "NT", "operational_status": "OPERATIONAL", "spatial_confidence": "5", "gnaf_assignment_method": "GNAF ADDRESS MATCH", "station_revised_date": "25/07/2011", "gnaf_formatted_address": "538 STUART HIGHWAY", "gnaf_address_detail_pid": "GANT_703844271", "gnaf_confidence": "0", "gnaf_suburb": "WINNELLIE", "gnaf_postcode": "0820", "distance_to_gnaf": 5.80000019 }, "geometry": { "type": "Point", "coordinates": [ 130.893736000000104, -12.426253999602947 ] } },
{ "type": "Feature", "properties": { "objectid": 2414, "feature_type": "PETROL STATION", "industry_id": "411886", "station_name": "MOBIL ALICE SPRINGS", "station_owner": "7-ELEVEN PTY LTD", "station_description": "AN ESTABLISHMENT WHERE A RANGE OF FUEL PRODUCTS CAN BE PURCHASED BY MOTORISTS", "station_address": "16 GHAN ROAD", "station_suburb": "CICCONE", "station_postcode": "0870", "station_state": "NT", "operational_status": "OPERATIONAL", "spatial_confidence": "5", "gnaf_assignment_method": "GNAF ADDRESS MATCH", "station_revised_date": "13/07/2012", "gnaf_formatted_address": "16 GHAN ROAD", "gnaf_address_detail_pid": "GANT_717245221", "gnaf_confidence": "1", "gnaf_suburb": "CICCONE", "gnaf_postcode": "0870", "distance_to_gnaf": 0.1 }, "geometry": { "type": "Point", "coordinates": [ 133.871335, -23.693336999304982 ] } },
{ "type": "Feature", "properties": { "objectid": 2415, "feature_type": "PETROL STATION", "industry_id": null, "station_name": "INDEPENDENT MATARANKA", "station_owner": "INDEPENDENT FUEL SUPPLIES", "station_description": "AN ESTABLISHMENT WHERE A RANGE OF FUEL PRODUCTS CAN BE PURCHASED BY MOTORISTS", "station_address": "STUART HIGHWAY AND WARLOCH STREET", "station_suburb": "MATARANKA", "station_postcode": "0852", "station_state": "NT", "operational_status": "OPERATIONAL", "spatial_confidence": "5", "gnaf_assignment_method": "AS RECEIVED – NO GNAF MATCH", "station_revised_date": "25/07/2011", "gnaf_formatted_address": null, "gnaf_address_detail_pid": null, "gnaf_confidence": null, "gnaf_suburb": null, "gnaf_postcode": null, "distance_to_gnaf": null }, "geometry": { "type": "Point", "coordinates": [ 133.067493, -14.924147999529806 ] } },
{ "type": "Feature", "properties": { "objectid": 2416, "feature_type": "PETROL STATION", "industry_id": null, "station_name": "KINGS CANYON ", "station_owner": "SHELL", "station_description": "AN ESTABLISHMENT WHERE A RANGE OF FUEL PRODUCTS CAN BE PURCHASED BY MOTORISTS", "station_address": "RED CENTRE WAY", "station_suburb": "PETERMANN", "station_postcode": "0872", "station_state": "NT", "operational_status": "OPERATIONAL", "spatial_confidence": "1", "gnaf_assignment_method": "AS RECEIVED – NO GNAF MATCH", "station_revised_date": "25/07/2011", "gnaf_formatted_address": null, "gnaf_address_detail_pid": null, "gnaf_confidence": null, "gnaf_suburb": null, "gnaf_postcode": null, "distance_to_gnaf": null }, "geometry": { "type": "Point", "coordinates": [ 131.510376, -24.252344999292667 ] } },
{ "type": "Feature", "properties": { "objectid": 2417, "feature_type": "PETROL STATION", "industry_id": "307", "station_name": "BP PINE CREEK", "station_owner": "BP", "station_description": "AN ESTABLISHMENT WHERE A RANGE OF FUEL PRODUCTS CAN BE PURCHASED BY MOTORISTS", "station_address": "69 MAIN TERRACE", "station_suburb": "PINE CREEK", "station_postcode": "0847", "station_state": "NT", "operational_status": "OPERATIONAL", "spatial_confidence": "5", "gnaf_assignment_method": "AS RECEIVED – NO GNAF MATCH", "station_revised_date": "25/07/2011", "gnaf_formatted_address": null, "gnaf_address_detail_pid": null, "gnaf_confidence": null, "gnaf_suburb": null, "gnaf_postcode": null, "distance_to_gnaf": null }, "geometry": { "type": "Point", "coordinates": [ 131.835154000000102, -13.824950999561565 ] } },
{ "type": "Feature", "properties": { "objectid": 2418, "feature_type": "PETROL STATION", "industry_id": null, "station_name": "INDEPENDENT MATARANKA", "station_owner": "INDEPENDENT FUEL SUPPLIES", "station_description": "AN ESTABLISHMENT WHERE A RANGE OF FUEL PRODUCTS CAN BE PURCHASED BY MOTORISTS", "station_address": "ROPER TERRACE", "station_suburb": "MATARANKA", "station_postcode": "0852", "station_state": "NT", "operational_status": "OPERATIONAL", "spatial_confidence": "5", "gnaf_assignment_method": "AS RECEIVED – NO GNAF MATCH", "station_revised_date": "25/07/2011", "gnaf_formatted_address": null, "gnaf_address_detail_pid": null, "gnaf_confidence": null, "gnaf_suburb": null, "gnaf_postcode": null, "distance_to_gnaf": null }, "geometry": { "type": "Point", "coordinates": [ 133.068834, -14.925409999529773 ] } },
{ "type": "Feature", "properties": { "objectid": 2419, "feature_type": "PETROL STATION", "industry_id": "1668", "station_name": "ALICE CITY BP", "station_owner": "BP", "station_description": "AN ESTABLISHMENT WHERE A RANGE OF FUEL PRODUCTS CAN BE PURCHASED BY MOTORISTS", "station_address": "TRANSIT PLAZA", "station_suburb": "ALICE SPRINGS", "station_postcode": "0870", "station_state": "NT", "operational_status": "OPERATIONAL", "spatial_confidence": "5", "gnaf_assignment_method": "AS RECEIVED – NO GNAF MATCH", "station_revised_date": "25/07/2011", "gnaf_formatted_address": null, "gnaf_address_detail_pid": null, "gnaf_confidence": null, "gnaf_suburb": null, "gnaf_postcode": null, "distance_to_gnaf": null }, "geometry": { "type": "Point", "coordinates": [ 133.878180045000022, -23.69867670730487 ] } },
{ "type": "Feature", "properties": { "objectid": 2420, "feature_type": "PETROL STATION", "industry_id": null, "station_name": "DUNMARRA WAYSIDE INN", "station_owner": "SHELL", "station_description": "AN ESTABLISHMENT WHERE A RANGE OF FUEL PRODUCTS CAN BE PURCHASED BY MOTORISTS", "station_address": "STUART HIGHWAY", "station_suburb": "BIRDUM", "station_postcode": "0852", "station_state": "NT", "operational_status": "OPERATIONAL", "spatial_confidence": "5", "gnaf_assignment_method": "AS RECEIVED – NO GNAF MATCH", "station_revised_date": "25/07/2011", "gnaf_formatted_address": null, "gnaf_address_detail_pid": null, "gnaf_confidence": null, "gnaf_suburb": null, "gnaf_postcode": null, "distance_to_gnaf": null }, "geometry": { "type": "Point", "coordinates": [ 133.412484, -16.679538999480577 ] } },
{ "type": "Feature", "properties": { "objectid": 2421, "feature_type": "PETROL STATION", "industry_id": null, "station_name": "CALTEX BERRIMAH", "station_owner": "CALTEX", "station_description": "AN ESTABLISHMENT WHERE A RANGE OF FUEL PRODUCTS CAN BE PURCHASED BY MOTORISTS", "station_address": "STUART HIGHWAY AND VANDERLIN DRIVE", "station_suburb": "KNUCKEY LAGOON", "station_postcode": "0828", "station_state": "NT", "operational_status": "OPERATIONAL", "spatial_confidence": "5", "gnaf_assignment_method": "AS RECEIVED – NO GNAF MATCH", "station_revised_date": "25/07/2011", "gnaf_formatted_address": null, "gnaf_address_detail_pid": null, "gnaf_confidence": null, "gnaf_suburb": null, "gnaf_postcode": null, "distance_to_gnaf": null }, "geometry": { "type": "Point", "coordinates": [ 130.924931, -12.433312999602697 ] } },
{ "type": "Feature", "properties": { "objectid": 2422, "feature_type": "PETROL STATION", "industry_id": null, "station_name": "UNITED HUMPTY DOO", "station_owner": "UNITED", "station_description": "AN ESTABLISHMENT WHERE A RANGE OF FUEL PRODUCTS CAN BE PURCHASED BY MOTORISTS", "station_address": "330 ARNHEM HIGHWAY", "station_suburb": "HUMPTY DOO", "station_postcode": "0836", "station_state": "NT", "operational_status": "OPERATIONAL", "spatial_confidence": "5", "gnaf_assignment_method": "AS RECEIVED – NO GNAF MATCH", "station_revised_date": "25/07/2011", "gnaf_formatted_address": null, "gnaf_address_detail_pid": null, "gnaf_confidence": null, "gnaf_suburb": null, "gnaf_postcode": null, "distance_to_gnaf": null }, "geometry": { "type": "Point", "coordinates": [ 131.10414, -12.572836999598525 ] } },
{ "type": "Feature", "properties": { "objectid": 2423, "feature_type": "PETROL STATION", "industry_id": null, "station_name": "COLES EXPRESS FAIRWAY WATERS", "station_owner": "SHELL", "station_description": "AN ESTABLISHMENT WHERE A RANGE OF FUEL PRODUCTS CAN BE PURCHASED BY MOTORISTS", "station_address": "130 UNIVERSITY AVENUE", "station_suburb": "DURACK", "station_postcode": "0830", "station_state": "NT", "operational_status": "OPERATIONAL", "spatial_confidence": "1", "gnaf_assignment_method": "AS RECEIVED – NO GNAF MATCH", "station_revised_date": "25/07/2011", "gnaf_formatted_address": null, "gnaf_address_detail_pid": null, "gnaf_confidence": null, "gnaf_suburb": null, "gnaf_postcode": null, "distance_to_gnaf": null }, "geometry": { "type": "Point", "coordinates": [ 130.970370000000116, -12.480162999601312 ] } },
{ "type": "Feature", "properties": { "objectid": 2424, "feature_type": "PETROL STATION", "industry_id": null, "station_name": "WOOLWORTHS CALTEX CASUARINA", "station_owner": "CALTEX", "station_description": "AN ESTABLISHMENT WHERE A RANGE OF FUEL PRODUCTS CAN BE PURCHASED BY MOTORISTS", "station_address": "TOWER ROAD AND SCATURCHIO STREET", "station_suburb": "CASUARINA", "station_postcode": "0810", "station_state": "NT", "operational_status": "OPERATIONAL", "spatial_confidence": "5", "gnaf_assignment_method": "AS RECEIVED – NO GNAF MATCH", "station_revised_date": "25/07/2011", "gnaf_formatted_address": null, "gnaf_address_detail_pid": null, "gnaf_confidence": null, "gnaf_suburb": null, "gnaf_postcode": null, "distance_to_gnaf": null }, "geometry": { "type": "Point", "coordinates": [ 130.883622, -12.371979999604543 ] } },
{ "type": "Feature", "properties": { "objectid": 2425, "feature_type": "PETROL STATION", "industry_id": null, "station_name": "WOOLWORTHS CALTEX KATHERINE", "station_owner": "CALTEX", "station_description": "AN ESTABLISHMENT WHERE A RANGE OF FUEL PRODUCTS CAN BE PURCHASED BY MOTORISTS", "station_address": "LINDSAY STREET AND FIRST STREET", "station_suburb": "KATHERINE", "station_postcode": "0850", "station_state": "NT", "operational_status": "OPERATIONAL", "spatial_confidence": "5", "gnaf_assignment_method": "AS RECEIVED – NO GNAF MATCH", "station_revised_date": "25/07/2011", "gnaf_formatted_address": null, "gnaf_address_detail_pid": null, "gnaf_confidence": null, "gnaf_suburb": null, "gnaf_postcode": null, "distance_to_gnaf": null }, "geometry": { "type": "Point", "coordinates": [ 132.266158, -14.465377999542973 ] } },
{ "type": "Feature", "properties": { "objectid": 2426, "feature_type": "PETROL STATION", "industry_id": "3158", "station_name": "KAKADU RESORT", "station_owner": "BP", "station_description": "AN ESTABLISHMENT WHERE A RANGE OF FUEL PRODUCTS CAN BE PURCHASED BY MOTORISTS", "station_address": "ARNHEM HIGHWAY", "station_suburb": "KAKADU", "station_postcode": "0822", "station_state": "NT", "operational_status": "OPERATIONAL", "spatial_confidence": "5", "gnaf_assignment_method": "AS RECEIVED – NO GNAF MATCH", "station_revised_date": "25/07/2011", "gnaf_formatted_address": null, "gnaf_address_detail_pid": null, "gnaf_confidence": null, "gnaf_suburb": null, "gnaf_postcode": null, "distance_to_gnaf": null }, "geometry": { "type": "Point", "coordinates": [ 132.479131, -12.674947999595521 ] } },
{ "type": "Feature", "properties": { "objectid": 2427, "feature_type": "PETROL STATION", "industry_id": null, "station_name": "CALTEX ALICE SPRINGS", "station_owner": "CALTEX", "station_description": "AN ESTABLISHMENT WHERE A RANGE OF FUEL PRODUCTS CAN BE PURCHASED BY MOTORISTS", "station_address": "44A STUART HIGHWAY", "station_suburb": "ALICE SPRINGS", "station_postcode": "0870", "station_state": "NT", "operational_status": "OPERATIONAL", "spatial_confidence": "5", "gnaf_assignment_method": "AS RECEIVED – NO GNAF MATCH", "station_revised_date": "25/07/2011", "gnaf_formatted_address": null, "gnaf_address_detail_pid": null, "gnaf_confidence": null, "gnaf_suburb": null, "gnaf_postcode": null, "distance_to_gnaf": null }, "geometry": { "type": "Point", "coordinates": [ 133.878337379000072, -23.693341720305007 ] } },
{ "type": "Feature", "properties": { "objectid": 2428, "feature_type": "PETROL STATION", "industry_id": null, "station_name": "UNITED COOLALINGA", "station_owner": "UNITED", "station_description": "AN ESTABLISHMENT WHERE A RANGE OF FUEL PRODUCTS CAN BE PURCHASED BY MOTORISTS", "station_address": "420 STUART HIGHWAY", "station_suburb": "COOLALINGA", "station_postcode": "0839", "station_state": "NT", "operational_status": "OPERATIONAL", "spatial_confidence": "5", "gnaf_assignment_method": "AS RECEIVED – NO GNAF MATCH", "station_revised_date": "25/07/2011", "gnaf_formatted_address": null, "gnaf_address_detail_pid": null, "gnaf_confidence": null, "gnaf_suburb": null, "gnaf_postcode": null, "distance_to_gnaf": null }, "geometry": { "type": "Point", "coordinates": [ 131.039729, -12.522484999600058 ] } },
{ "type": "Feature", "properties": { "objectid": 2429, "feature_type": "PETROL STATION", "industry_id": null, "station_name": "COLES EXPRESS DARWIN CITY", "station_owner": "SHELL", "station_description": "AN ESTABLISHMENT WHERE A RANGE OF FUEL PRODUCTS CAN BE PURCHASED BY MOTORISTS", "station_address": "DALY STREET AND MCMINN STREET", "station_suburb": "DARWIN CITY", "station_postcode": "0800", "station_state": "NT", "operational_status": "OPERATIONAL", "spatial_confidence": "5", "gnaf_assignment_method": "AS RECEIVED – NO GNAF MATCH", "station_revised_date": "25/07/2011", "gnaf_formatted_address": null, "gnaf_address_detail_pid": null, "gnaf_confidence": null, "gnaf_suburb": null, "gnaf_postcode": null, "distance_to_gnaf": null }, "geometry": { "type": "Point", "coordinates": [ 130.838643, -12.454751999602045 ] } },
{ "type": "Feature", "properties": { "objectid": 2430, "feature_type": "PETROL STATION", "industry_id": null, "station_name": "AMPOL ELLIOTT", "station_owner": "AMPOL", "station_description": "AN ESTABLISHMENT WHERE A RANGE OF FUEL PRODUCTS CAN BE PURCHASED BY MOTORISTS", "station_address": "36 STUART HIGHWAY", "station_suburb": "ELLIOTT", "station_postcode": "0862", "station_state": "NT", "operational_status": "OPERATIONAL", "spatial_confidence": "5", "gnaf_assignment_method": "AS RECEIVED – NO GNAF MATCH", "station_revised_date": "25/07/2011", "gnaf_formatted_address": null, "gnaf_address_detail_pid": null, "gnaf_confidence": null, "gnaf_suburb": null, "gnaf_postcode": null, "distance_to_gnaf": null }, "geometry": { "type": "Point", "coordinates": [ 133.543515, -17.553057999456783 ] } },
{ "type": "Feature", "properties": { "objectid": 2431, "feature_type": "PETROL STATION", "industry_id": null, "station_name": "ERLDUNDA ROADHOUSE", "station_owner": "SHELL", "station_description": "AN ESTABLISHMENT WHERE A RANGE OF FUEL PRODUCTS CAN BE PURCHASED BY MOTORISTS", "station_address": "STUART HIGHWAY", "station_suburb": "ERLDUNDA", "station_postcode": "0872", "station_state": "NT", "operational_status": "OPERATIONAL", "spatial_confidence": "5", "gnaf_assignment_method": "AS RECEIVED – NO GNAF MATCH", "station_revised_date": "25/07/2011", "gnaf_formatted_address": null, "gnaf_address_detail_pid": null, "gnaf_confidence": null, "gnaf_suburb": null, "gnaf_postcode": null, "distance_to_gnaf": null }, "geometry": { "type": "Point", "coordinates": [ 133.20078, -25.197553999272476 ] } },
{ "type": "Feature", "properties": { "objectid": 2432, "feature_type": "PETROL STATION", "industry_id": null, "station_name": "COLES EXPRESS DARWIN TRUCK CITY", "station_owner": "SHELL", "station_description": "AN ESTABLISHMENT WHERE A RANGE OF FUEL PRODUCTS CAN BE PURCHASED BY MOTORISTS", "station_address": "685 STUART HIGHWAY", "station_suburb": "KNUCKEY LAGOON", "station_postcode": "0828", "station_state": "NT", "operational_status": "OPERATIONAL", "spatial_confidence": "5", "gnaf_assignment_method": "AS RECEIVED – NO GNAF MATCH", "station_revised_date": "25/07/2011", "gnaf_formatted_address": null, "gnaf_address_detail_pid": null, "gnaf_confidence": null, "gnaf_suburb": null, "gnaf_postcode": null, "distance_to_gnaf": null }, "geometry": { "type": "Point", "coordinates": [ 130.923946000000115, -12.434897999602686 ] } },
{ "type": "Feature", "properties": { "objectid": 2433, "feature_type": "PETROL STATION", "industry_id": null, "station_name": "SHELL THREEWAYS ROADHOUSE", "station_owner": "SHELL", "station_description": "AN ESTABLISHMENT WHERE A RANGE OF FUEL PRODUCTS CAN BE PURCHASED BY MOTORISTS", "station_address": "STUART HIGHWAY AND BARKLY HIGHWAY", "station_suburb": "THREE WAYS", "station_postcode": "0852", "station_state": "NT", "operational_status": "OPERATIONAL", "spatial_confidence": "5", "gnaf_assignment_method": "AS RECEIVED – NO GNAF MATCH", "station_revised_date": "25/07/2011", "gnaf_formatted_address": null, "gnaf_address_detail_pid": null, "gnaf_confidence": null, "gnaf_suburb": null, "gnaf_postcode": null, "distance_to_gnaf": null }, "geometry": { "type": "Point", "coordinates": [ 134.208121000000119, -19.4366419994072 ] } },
{ "type": "Feature", "properties": { "objectid": 2434, "feature_type": "PETROL STATION", "industry_id": null, "station_name": "INDEPENDENT ELLIOTT", "station_owner": "INDEPENDENT FUEL SUPPLIES", "station_description": "AN ESTABLISHMENT WHERE A RANGE OF FUEL PRODUCTS CAN BE PURCHASED BY MOTORISTS", "station_address": "5 STUART HIGHWAY", "station_suburb": "ELLIOTT", "station_postcode": "0862", "station_state": "NT", "operational_status": "OPERATIONAL", "spatial_confidence": "5", "gnaf_assignment_method": "AS RECEIVED – NO GNAF MATCH", "station_revised_date": "25/07/2011", "gnaf_formatted_address": null, "gnaf_address_detail_pid": null, "gnaf_confidence": null, "gnaf_suburb": null, "gnaf_postcode": null, "distance_to_gnaf": null }, "geometry": { "type": "Point", "coordinates": [ 133.547857, -17.555878999456684 ] } },
{ "type": "Feature", "properties": { "objectid": 2435, "feature_type": "PETROL STATION", "industry_id": null, "station_name": "INDEPENDENT PINE CREEK", "station_owner": "INDEPENDENT FUEL SUPPLIES", "station_description": "AN ESTABLISHMENT WHERE A RANGE OF FUEL PRODUCTS CAN BE PURCHASED BY MOTORISTS", "station_address": "MAIN TERRACE AND WARD STREET", "station_suburb": "PINE CREEK", "station_postcode": "0847", "station_state": "NT", "operational_status": "OPERATIONAL", "spatial_confidence": "5", "gnaf_assignment_method": "AS RECEIVED – NO GNAF MATCH", "station_revised_date": "25/07/2011", "gnaf_formatted_address": null, "gnaf_address_detail_pid": null, "gnaf_confidence": null, "gnaf_suburb": null, "gnaf_postcode": null, "distance_to_gnaf": null }, "geometry": { "type": "Point", "coordinates": [ 131.833816, -13.822463999561657 ] } },
{ "type": "Feature", "properties": { "objectid": 2436, "feature_type": "PETROL STATION", "industry_id": "730", "station_name": "BP MALAK", "station_owner": "BP", "station_description": "AN ESTABLISHMENT WHERE A RANGE OF FUEL PRODUCTS CAN BE PURCHASED BY MOTORISTS", "station_address": "HOLZERLAND STREET AND MALAK PLACE", "station_suburb": "MALAK", "station_postcode": "0812", "station_state": "NT", "operational_status": "OPERATIONAL", "spatial_confidence": "5", "gnaf_assignment_method": "AS RECEIVED – NO GNAF MATCH", "station_revised_date": "25/07/2011", "gnaf_formatted_address": null, "gnaf_address_detail_pid": null, "gnaf_confidence": null, "gnaf_suburb": null, "gnaf_postcode": null, "distance_to_gnaf": null }, "geometry": { "type": "Point", "coordinates": [ 130.904315000000111, -12.396605999603823 ] } },
{ "type": "Feature", "properties": { "objectid": 2437, "feature_type": "PETROL STATION", "industry_id": null, "station_name": "BATCHELOR", "station_owner": "BP", "station_description": "AN ESTABLISHMENT WHERE A RANGE OF FUEL PRODUCTS CAN BE PURCHASED BY MOTORISTS", "station_address": "388 RUMJUNGLE ROAD", "station_suburb": "BATCHELOR", "station_postcode": "0845", "station_state": "NT", "operational_status": "OPERATIONAL", "spatial_confidence": "1", "gnaf_assignment_method": "AS RECEIVED – NO GNAF MATCH", "station_revised_date": "25/07/2011", "gnaf_formatted_address": null, "gnaf_address_detail_pid": null, "gnaf_confidence": null, "gnaf_suburb": null, "gnaf_postcode": null, "distance_to_gnaf": null }, "geometry": { "type": "Point", "coordinates": [ 131.023315430000025, -13.044311522584556 ] } },
{ "type": "Feature", "properties": { "objectid": 2438, "feature_type": "PETROL STATION", "industry_id": "5354", "station_name": "17 MILE ", "station_owner": "INDEPENDENT FUEL SUPPLIES", "station_description": "AN ESTABLISHMENT WHERE A RANGE OF FUEL PRODUCTS CAN BE PURCHASED BY MOTORISTS", "station_address": "2 VIRGINIA ROAD", "station_suburb": "VIRGINIA", "station_postcode": "0834", "station_state": "NT", "operational_status": "OPERATIONAL", "spatial_confidence": "5", "gnaf_assignment_method": "AS RECEIVED – NO GNAF MATCH", "station_revised_date": "25/07/2011", "gnaf_formatted_address": null, "gnaf_address_detail_pid": null, "gnaf_confidence": null, "gnaf_suburb": null, "gnaf_postcode": null, "distance_to_gnaf": null }, "geometry": { "type": "Point", "coordinates": [ 131.028987, -12.516494999600239 ] } },
{ "type": "Feature", "properties": { "objectid": 2439, "feature_type": "PETROL STATION", "industry_id": "8112", "station_name": "KATHERINE", "station_owner": "BP", "station_description": "AN ESTABLISHMENT WHERE A RANGE OF FUEL PRODUCTS CAN BE PURCHASED BY MOTORISTS", "station_address": "ZIMMIN DRIVE", "station_suburb": "COSSACK", "station_postcode": "0850", "station_state": "NT", "operational_status": "OPERATIONAL", "spatial_confidence": "5", "gnaf_assignment_method": "AS RECEIVED – NO GNAF MATCH", "station_revised_date": "25/07/2011", "gnaf_formatted_address": null, "gnaf_address_detail_pid": null, "gnaf_confidence": null, "gnaf_suburb": null, "gnaf_postcode": null, "distance_to_gnaf": null }, "geometry": { "type": "Point", "coordinates": [ 132.246228527000085, -14.453493890543315 ] } },
{ "type": "Feature", "properties": { "objectid": 2440, "feature_type": "PETROL STATION", "industry_id": "9317", "station_name": "BP NHULUNBUY", "station_owner": "BP", "station_description": "AN ESTABLISHMENT WHERE A RANGE OF FUEL PRODUCTS CAN BE PURCHASED BY MOTORISTS", "station_address": "6 MATTHEW FLINDERS WAY", "station_suburb": "NHULUNBUY", "station_postcode": "0880", "station_state": "NT", "operational_status": "OPERATIONAL", "spatial_confidence": "5", "gnaf_assignment_method": "AS RECEIVED – NO GNAF MATCH", "station_revised_date": "25/07/2011", "gnaf_formatted_address": null, "gnaf_address_detail_pid": null, "gnaf_confidence": null, "gnaf_suburb": null, "gnaf_postcode": null, "distance_to_gnaf": null }, "geometry": { "type": "Point", "coordinates": [ 136.78791, -12.18558199961014 ] } },
{ "type": "Feature", "properties": { "objectid": 2441, "feature_type": "PETROL STATION", "industry_id": null, "station_name": "CALTEX KATHERINE", "station_owner": "CALTEX", "station_description": "AN ESTABLISHMENT WHERE A RANGE OF FUEL PRODUCTS CAN BE PURCHASED BY MOTORISTS", "station_address": "VICTORIA HIGHWAY AND CROKER STREET", "station_suburb": "KATHERINE SOUTH", "station_postcode": "0850", "station_state": "NT", "operational_status": "OPERATIONAL", "spatial_confidence": "5", "gnaf_assignment_method": "AS RECEIVED – NO GNAF MATCH", "station_revised_date": "25/07/2011", "gnaf_formatted_address": null, "gnaf_address_detail_pid": null, "gnaf_confidence": null, "gnaf_suburb": null, "gnaf_postcode": null, "distance_to_gnaf": null }, "geometry": { "type": "Point", "coordinates": [ 132.257152, -14.4849889995424 ] } },
{ "type": "Feature", "properties": { "objectid": 2442, "feature_type": "PETROL STATION", "industry_id": "411884", "station_name": "MOBIL TENNANT CREEK", "station_owner": "7-ELEVEN PTY LTD", "station_description": "AN ESTABLISHMENT WHERE A RANGE OF FUEL PRODUCTS CAN BE PURCHASED BY MOTORISTS", "station_address": "PATERSON STREET AND WILLIAMS STREET", "station_suburb": "TENNANT CREEK", "station_postcode": "0860", "station_state": "NT", "operational_status": "OPERATIONAL", "spatial_confidence": "5", "gnaf_assignment_method": "AS RECEIVED – NO GNAF MATCH", "station_revised_date": "13/07/2012", "gnaf_formatted_address": null, "gnaf_address_detail_pid": null, "gnaf_confidence": null, "gnaf_suburb": null, "gnaf_postcode": null, "distance_to_gnaf": null }, "geometry": { "type": "Point", "coordinates": [ 134.187972, -19.653979999401635 ] } },
{ "type": "Feature", "properties": { "objectid": 2443, "feature_type": "PETROL STATION", "industry_id": null, "station_name": "VICTORIA RIVER", "station_owner": "UNITED", "station_description": "AN ESTABLISHMENT WHERE A RANGE OF FUEL PRODUCTS CAN BE PURCHASED BY MOTORISTS", "station_address": "VICTORIA HIGHWAY", "station_suburb": "VICTORIA RIVER", "station_postcode": "0852", "station_state": "NT", "operational_status": "OPERATIONAL", "spatial_confidence": "5", "gnaf_assignment_method": "AS RECEIVED – NO GNAF MATCH", "station_revised_date": "25/07/2011", "gnaf_formatted_address": null, "gnaf_address_detail_pid": null, "gnaf_confidence": null, "gnaf_suburb": null, "gnaf_postcode": null, "distance_to_gnaf": null }, "geometry": { "type": "Point", "coordinates": [ 131.127838230000066, -15.616291460510167 ] } },
{ "type": "Feature", "properties": { "objectid": 2444, "feature_type": "PETROL STATION", "industry_id": "9325", "station_name": "BP NIGHTCLIFF", "station_owner": "BP", "station_description": "AN ESTABLISHMENT WHERE A RANGE OF FUEL PRODUCTS CAN BE PURCHASED BY MOTORISTS", "station_address": "PROGRESS DRIVE AND OLEANDER STREET", "station_suburb": "NIGHTCLIFF", "station_postcode": "0810", "station_state": "NT", "operational_status": "OPERATIONAL", "spatial_confidence": "5", "gnaf_assignment_method": "AS RECEIVED – NO GNAF MATCH", "station_revised_date": "25/07/2011", "gnaf_formatted_address": null, "gnaf_address_detail_pid": null, "gnaf_confidence": null, "gnaf_suburb": null, "gnaf_postcode": null, "distance_to_gnaf": null }, "geometry": { "type": "Point", "coordinates": [ 130.852088, -12.387638999604105 ] } },
{ "type": "Feature", "properties": { "objectid": 2445, "feature_type": "PETROL STATION", "industry_id": "9302", "station_name": "BP PALMS AUTO PORT", "station_owner": "BP", "station_description": "AN ESTABLISHMENT WHERE A RANGE OF FUEL PRODUCTS CAN BE PURCHASED BY MOTORISTS", "station_address": "907 STUART HIGHWAY", "station_suburb": "HOLTZE", "station_postcode": "0829", "station_state": "NT", "operational_status": "OPERATIONAL", "spatial_confidence": "5", "gnaf_assignment_method": "AS RECEIVED – NO GNAF MATCH", "station_revised_date": "25/07/2011", "gnaf_formatted_address": null, "gnaf_address_detail_pid": null, "gnaf_confidence": null, "gnaf_suburb": null, "gnaf_postcode": null, "distance_to_gnaf": null }, "geometry": { "type": "Point", "coordinates": [ 130.971022, -12.45850399960195 ] } },
{ "type": "Feature", "properties": { "objectid": 2446, "feature_type": "PETROL STATION", "industry_id": null, "station_name": "INDEPENDENT TENNANT CREEK", "station_owner": "INDEPENDENT FUEL SUPPLIES", "station_description": "AN ESTABLISHMENT WHERE A RANGE OF FUEL PRODUCTS CAN BE PURCHASED BY MOTORISTS", "station_address": "84 PATERSON STREET", "station_suburb": "TENNANT CREEK", "station_postcode": "0860", "station_state": "NT", "operational_status": "OPERATIONAL", "spatial_confidence": "5", "gnaf_assignment_method": "AS RECEIVED – NO GNAF MATCH", "station_revised_date": "25/07/2011", "gnaf_formatted_address": null, "gnaf_address_detail_pid": null, "gnaf_confidence": null, "gnaf_suburb": null, "gnaf_postcode": null, "distance_to_gnaf": null }, "geometry": { "type": "Point", "coordinates": [ 134.191571, -19.645353999401859 ] } },
{ "type": "Feature", "properties": { "objectid": 2447, "feature_type": "PETROL STATION", "industry_id": "1747", "station_name": "RAAF BASE TINDAL", "station_owner": "BP", "station_description": "AN ESTABLISHMENT WHERE A RANGE OF FUEL PRODUCTS CAN BE PURCHASED BY MOTORISTS", "station_address": "DAWSON ROAD", "station_suburb": "TINDAL", "station_postcode": "0853", "station_state": "NT", "operational_status": "OPERATIONAL", "spatial_confidence": "1", "gnaf_assignment_method": "AS RECEIVED – NO GNAF MATCH", "station_revised_date": "25/07/2011", "gnaf_formatted_address": null, "gnaf_address_detail_pid": null, "gnaf_confidence": null, "gnaf_suburb": null, "gnaf_postcode": null, "distance_to_gnaf": null }, "geometry": { "type": "Point", "coordinates": [ 132.364341, -14.511522999541661 ] } },
{ "type": "Feature", "properties": { "objectid": 2448, "feature_type": "PETROL STATION", "industry_id": "5807", "station_name": "ADF DARWIN", "station_owner": "BP", "station_description": "AN ESTABLISHMENT WHERE A RANGE OF FUEL PRODUCTS CAN BE PURCHASED BY MOTORISTS", "station_address": "5 WISHART ROAD", "station_suburb": "WISHART", "station_postcode": "0822", "station_state": "NT", "operational_status": "OPERATIONAL", "spatial_confidence": "1", "gnaf_assignment_method": "AS RECEIVED – NO GNAF MATCH", "station_revised_date": "25/07/2011", "gnaf_formatted_address": null, "gnaf_address_detail_pid": null, "gnaf_confidence": null, "gnaf_suburb": null, "gnaf_postcode": null, "distance_to_gnaf": null }, "geometry": { "type": "Point", "coordinates": [ 130.926544943000067, -12.460507305601901 ] } },
{ "type": "Feature", "properties": { "objectid": 2449, "feature_type": "PETROL STATION", "industry_id": null, "station_name": "LUDMILLA", "station_owner": "UNITED", "station_description": "AN ESTABLISHMENT WHERE A RANGE OF FUEL PRODUCTS CAN BE PURCHASED BY MOTORISTS", "station_address": "187 BAGOT ROAD", "station_suburb": "LUDMILLA", "station_postcode": "0820", "station_state": "NT", "operational_status": "OPERATIONAL", "spatial_confidence": "5", "gnaf_assignment_method": "AS RECEIVED – NO GNAF MATCH", "station_revised_date": "25/07/2011", "gnaf_formatted_address": null, "gnaf_address_detail_pid": null, "gnaf_confidence": null, "gnaf_suburb": null, "gnaf_postcode": null, "distance_to_gnaf": null }, "geometry": { "type": "Point", "coordinates": [ 130.855806767000104, -12.409469509603424 ] } },
{ "type": "Feature", "properties": { "objectid": 2450, "feature_type": "PETROL STATION", "industry_id": "411880", "station_name": "MOBIL ALICE SPRINGS", "station_owner": "7-ELEVEN PTY LTD", "station_description": "AN ESTABLISHMENT WHERE A RANGE OF FUEL PRODUCTS CAN BE PURCHASED BY MOTORISTS", "station_address": "70 SPEARWOOD ROAD", "station_suburb": "SADADEEN", "station_postcode": "0870", "station_state": "NT", "operational_status": "OPERATIONAL", "spatial_confidence": "5", "gnaf_assignment_method": "AS RECEIVED – NO GNAF MATCH", "station_revised_date": "13/07/2012", "gnaf_formatted_address": null, "gnaf_address_detail_pid": null, "gnaf_confidence": null, "gnaf_suburb": null, "gnaf_postcode": null, "distance_to_gnaf": null }, "geometry": { "type": "Point", "coordinates": [ 133.89998, -23.700471999304813 ] } },
{ "type": "Feature", "properties": { "objectid": 2451, "feature_type": "PETROL STATION", "industry_id": "4116", "station_name": "BP DARWIN CITY", "station_owner": "BP", "station_description": "AN ESTABLISHMENT WHERE A RANGE OF FUEL PRODUCTS CAN BE PURCHASED BY MOTORISTS", "station_address": "91 SMITH STREET", "station_suburb": "DARWIN", "station_postcode": "0800", "station_state": "NT", "operational_status": "OPERATIONAL", "spatial_confidence": "1", "gnaf_assignment_method": "AS RECEIVED – NO GNAF MATCH", "station_revised_date": "25/07/2011", "gnaf_formatted_address": null, "gnaf_address_detail_pid": null, "gnaf_confidence": null, "gnaf_suburb": null, "gnaf_postcode": null, "distance_to_gnaf": null }, "geometry": { "type": "Point", "coordinates": [ 130.837389, -12.459396999601944 ] } },
{ "type": "Feature", "properties": { "objectid": 2452, "feature_type": "PETROL STATION", "industry_id": "411883", "station_name": "MOBIL ALICE SPRINGS", "station_owner": "7-ELEVEN PTY LTD", "station_description": "AN ESTABLISHMENT WHERE A RANGE OF FUEL PRODUCTS CAN BE PURCHASED BY MOTORISTS", "station_address": "34 STUART HIGHWAY", "station_suburb": "CICCONE", "station_postcode": "0870", "station_state": "NT", "operational_status": "OPERATIONAL", "spatial_confidence": "5", "gnaf_assignment_method": "AS RECEIVED – NO GNAF MATCH", "station_revised_date": "13/07/2012", "gnaf_formatted_address": null, "gnaf_address_detail_pid": null, "gnaf_confidence": null, "gnaf_suburb": null, "gnaf_postcode": null, "distance_to_gnaf": null }, "geometry": { "type": "Point", "coordinates": [ 133.875971, -23.691067999305073 ] } },
{ "type": "Feature", "properties": { "objectid": 2453, "feature_type": "PETROL STATION", "industry_id": "411879", "station_name": "MOBIL ALICE SPRINGS", "station_owner": "7-ELEVEN PTY LTD", "station_description": "AN ESTABLISHMENT WHERE A RANGE OF FUEL PRODUCTS CAN BE PURCHASED BY MOTORISTS", "station_address": "178 LARAPINTA DRIVE", "station_suburb": "ARALUEN", "station_postcode": "0870", "station_state": "NT", "operational_status": "OPERATIONAL", "spatial_confidence": "5", "gnaf_assignment_method": "AS RECEIVED – NO GNAF MATCH", "station_revised_date": "13/07/2012", "gnaf_formatted_address": null, "gnaf_address_detail_pid": null, "gnaf_confidence": null, "gnaf_suburb": null, "gnaf_postcode": null, "distance_to_gnaf": null }, "geometry": { "type": "Point", "coordinates": [ 133.853184, -23.70417199930478 ] } },
{ "type": "Feature", "properties": { "objectid": 2454, "feature_type": "PETROL STATION", "industry_id": null, "station_name": "COLES EXPRESS NIGHTCLIFF", "station_owner": "SHELL", "station_description": "AN ESTABLISHMENT WHERE A RANGE OF FUEL PRODUCTS CAN BE PURCHASED BY MOTORISTS", "station_address": "PROGRESS DRIVE AND DICK WARD DRIVE", "station_suburb": "NIGHTCLIFF", "station_postcode": "0810", "station_state": "NT", "operational_status": "OPERATIONAL", "spatial_confidence": "5", "gnaf_assignment_method": "AS RECEIVED – NO GNAF MATCH", "station_revised_date": "25/07/2011", "gnaf_formatted_address": null, "gnaf_address_detail_pid": null, "gnaf_confidence": null, "gnaf_suburb": null, "gnaf_postcode": null, "distance_to_gnaf": null }, "geometry": { "type": "Point", "coordinates": [ 130.851953, -12.388301999604051 ] } },
{ "type": "Feature", "properties": { "objectid": 2455, "feature_type": "PETROL STATION", "industry_id": "4453", "station_name": "GULF MINI MART", "station_owner": "INDEPENDENT FUEL SUPPLIES", "station_description": "AN ESTABLISHMENT WHERE A RANGE OF FUEL PRODUCTS CAN BE PURCHASED BY MOTORISTS", "station_address": "130-166 ROBINSON ROAD", "station_suburb": "BORROLOOLA", "station_postcode": "0854", "station_state": "NT", "operational_status": "OPERATIONAL", "spatial_confidence": "5", "gnaf_assignment_method": "AS RECEIVED – NO GNAF MATCH", "station_revised_date": "25/07/2011", "gnaf_formatted_address": null, "gnaf_address_detail_pid": null, "gnaf_confidence": null, "gnaf_suburb": null, "gnaf_postcode": null, "distance_to_gnaf": null }, "geometry": { "type": "Point", "coordinates": [ 136.307561, -16.073495999497379 ] } },
{ "type": "Feature", "properties": { "objectid": 2456, "feature_type": "PETROL STATION", "industry_id": null, "station_name": "COLES EXPRESS WINNELLIE", "station_owner": "SHELL", "station_description": "AN ESTABLISHMENT WHERE A RANGE OF FUEL PRODUCTS CAN BE PURCHASED BY MOTORISTS", "station_address": "380 STUART HIGHWAY", "station_suburb": "WINNELLIE", "station_postcode": "0820", "station_state": "NT", "operational_status": "OPERATIONAL", "spatial_confidence": "5", "gnaf_assignment_method": "AS RECEIVED – NO GNAF MATCH", "station_revised_date": "25/07/2011", "gnaf_formatted_address": null, "gnaf_address_detail_pid": null, "gnaf_confidence": null, "gnaf_suburb": null, "gnaf_postcode": null, "distance_to_gnaf": null }, "geometry": { "type": "Point", "coordinates": [ 130.869452, -12.425682999602921 ] } },
{ "type": "Feature", "properties": { "objectid": 2457, "feature_type": "PETROL STATION", "industry_id": null, "station_name": "INDEPENDENT BERRY SPRINGS", "station_owner": "INDEPENDENT FUEL SUPPLIES", "station_description": "AN ESTABLISHMENT WHERE A RANGE OF FUEL PRODUCTS CAN BE PURCHASED BY MOTORISTS", "station_address": "778-810 COX PENINSULA ROAD", "station_suburb": "BERRY SPRINGS", "station_postcode": "0838", "station_state": "NT", "operational_status": "OPERATIONAL", "spatial_confidence": "1", "gnaf_assignment_method": "AS RECEIVED – NO GNAF MATCH", "station_revised_date": "25/07/2011", "gnaf_formatted_address": null, "gnaf_address_detail_pid": null, "gnaf_confidence": null, "gnaf_suburb": null, "gnaf_postcode": null, "distance_to_gnaf": null }, "geometry": { "type": "Point", "coordinates": [ 131.014047000000119, -12.700712999594728 ] } },
{ "type": "Feature", "properties": { "objectid": 2458, "feature_type": "PETROL STATION", "industry_id": null, "station_name": "COLES EXPRESS KATHERINE", "station_owner": "SHELL", "station_description": "AN ESTABLISHMENT WHERE A RANGE OF FUEL PRODUCTS CAN BE PURCHASED BY MOTORISTS", "station_address": "28-30 KATHERINE TERRACE", "station_suburb": "KATHERINE SOUTH", "station_postcode": "0850", "station_state": "NT", "operational_status": "OPERATIONAL", "spatial_confidence": "5", "gnaf_assignment_method": "AS RECEIVED – NO GNAF MATCH", "station_revised_date": "25/07/2011", "gnaf_formatted_address": null, "gnaf_address_detail_pid": null, "gnaf_confidence": null, "gnaf_suburb": null, "gnaf_postcode": null, "distance_to_gnaf": null }, "geometry": { "type": "Point", "coordinates": [ 132.262921000000119, -14.465609999543 ] } },
{ "type": "Feature", "properties": { "objectid": 2459, "feature_type": "PETROL STATION", "industry_id": "411887", "station_name": "MOBIL KINGS CANYON VIA ALI CURUNG", "station_owner": "7-ELEVEN PTY LTD", "station_description": "AN ESTABLISHMENT WHERE A RANGE OF FUEL PRODUCTS CAN BE PURCHASED BY MOTORISTS", "station_address": "RED CENTRE WAY", "station_suburb": "PETERMANN", "station_postcode": "0872", "station_state": "NT", "operational_status": "OPERATIONAL", "spatial_confidence": "5", "gnaf_assignment_method": "AS RECEIVED – NO GNAF MATCH", "station_revised_date": "13/07/2012", "gnaf_formatted_address": null, "gnaf_address_detail_pid": null, "gnaf_confidence": null, "gnaf_suburb": null, "gnaf_postcode": null, "distance_to_gnaf": null }, "geometry": { "type": "Point", "coordinates": [ 131.51154, -24.250617999292736 ] } },
{ "type": "Feature", "properties": { "objectid": 2460, "feature_type": "PETROL STATION", "industry_id": "8597", "station_name": "BP RENNER SPRINGS DESERT", "station_owner": "INDEPENDENT FUEL SUPPLIES", "station_description": "AN ESTABLISHMENT WHERE A RANGE OF FUEL PRODUCTS CAN BE PURCHASED BY MOTORISTS", "station_address": "STUART HIGHWAY", "station_suburb": "PAMAYU", "station_postcode": "0862", "station_state": "NT", "operational_status": "OPERATIONAL", "spatial_confidence": "5", "gnaf_assignment_method": "AS RECEIVED – NO GNAF MATCH", "station_revised_date": "25/07/2011", "gnaf_formatted_address": null, "gnaf_address_detail_pid": null, "gnaf_confidence": null, "gnaf_suburb": null, "gnaf_postcode": null, "distance_to_gnaf": null }, "geometry": { "type": "Point", "coordinates": [ 133.795570000000112, -18.318498999436354 ] } },
{ "type": "Feature", "properties": { "objectid": 2461, "feature_type": "PETROL STATION", "industry_id": null, "station_name": "COLES EXPRESS CASUARINA", "station_owner": "SHELL", "station_description": "AN ESTABLISHMENT WHERE A RANGE OF FUEL PRODUCTS CAN BE PURCHASED BY MOTORISTS", "station_address": "242 TROWER ROAD", "station_suburb": "WAGAMAN", "station_postcode": "0810", "station_state": "NT", "operational_status": "OPERATIONAL", "spatial_confidence": "5", "gnaf_assignment_method": "AS RECEIVED – NO GNAF MATCH", "station_revised_date": "25/07/2011", "gnaf_formatted_address": null, "gnaf_address_detail_pid": null, "gnaf_confidence": null, "gnaf_suburb": null, "gnaf_postcode": null, "distance_to_gnaf": null }, "geometry": { "type": "Point", "coordinates": [ 130.881884, -12.377037999604413 ] } },
{ "type": "Feature", "properties": { "objectid": 2462, "feature_type": "PETROL STATION", "industry_id": "4435", "station_name": "BERRY SPRINGS CENTRE", "station_owner": "BP", "station_description": "AN ESTABLISHMENT WHERE A RANGE OF FUEL PRODUCTS CAN BE PURCHASED BY MOTORISTS", "station_address": "817-829 COX PENINSULA ROAD", "station_suburb": "BERRY SPRINGS", "station_postcode": "0838", "station_state": "NT", "operational_status": "OPERATIONAL", "spatial_confidence": "1", "gnaf_assignment_method": "AS RECEIVED – NO GNAF MATCH", "station_revised_date": "25/07/2011", "gnaf_formatted_address": null, "gnaf_address_detail_pid": null, "gnaf_confidence": null, "gnaf_suburb": null, "gnaf_postcode": null, "distance_to_gnaf": null }, "geometry": { "type": "Point", "coordinates": [ 131.015485915000113, -12.701098246594711 ] } },
{ "type": "Feature", "properties": { "objectid": 2463, "feature_type": "PETROL STATION", "industry_id": null, "station_name": "INDEPENDENT DAVENPORT", "station_owner": "INDEPENDENT FUEL SUPPLIES", "station_description": "AN ESTABLISHMENT WHERE A RANGE OF FUEL PRODUCTS CAN BE PURCHASED BY MOTORISTS", "station_address": "STUART HIGHWAY", "station_suburb": "DAVENPORT", "station_postcode": "0872", "station_state": "NT", "operational_status": "OPERATIONAL", "spatial_confidence": "5", "gnaf_assignment_method": "AS RECEIVED – NO GNAF MATCH", "station_revised_date": "25/07/2011", "gnaf_formatted_address": null, "gnaf_address_detail_pid": null, "gnaf_confidence": null, "gnaf_suburb": null, "gnaf_postcode": null, "distance_to_gnaf": null }, "geometry": { "type": "Point", "coordinates": [ 134.22265, -20.640818999376869 ] } },
{ "type": "Feature", "properties": { "objectid": 2464, "feature_type": "PETROL STATION", "industry_id": "9327", "station_name": "DALY WATERS", "station_owner": "BP", "station_description": "AN ESTABLISHMENT WHERE A RANGE OF FUEL PRODUCTS CAN BE PURCHASED BY MOTORISTS", "station_address": "STUART HIGHWAY AND CARPENTARIA HIGHWAY", "station_suburb": "BIRDUM", "station_postcode": "0852", "station_state": "NT", "operational_status": "OPERATIONAL", "spatial_confidence": "5", "gnaf_assignment_method": "AS RECEIVED – NO GNAF MATCH", "station_revised_date": "25/07/2011", "gnaf_formatted_address": null, "gnaf_address_detail_pid": null, "gnaf_confidence": null, "gnaf_suburb": null, "gnaf_postcode": null, "distance_to_gnaf": null }, "geometry": { "type": "Point", "coordinates": [ 133.385659, -16.307659999490831 ] } },
{ "type": "Feature", "properties": { "objectid": 2465, "feature_type": "PETROL STATION", "industry_id": null, "station_name": "WOOLWORTHS CALTEX NIGHTCLIFF", "station_owner": "CALTEX", "station_description": "AN ESTABLISHMENT WHERE A RANGE OF FUEL PRODUCTS CAN BE PURCHASED BY MOTORISTS", "station_address": "DICK WARD DRIVE AND CRAIG CRESCENT", "station_suburb": "COCONUT GROVE", "station_postcode": "0810", "station_state": "NT", "operational_status": "OPERATIONAL", "spatial_confidence": "5", "gnaf_assignment_method": "AS RECEIVED – NO GNAF MATCH", "station_revised_date": "25/07/2011", "gnaf_formatted_address": null, "gnaf_address_detail_pid": null, "gnaf_confidence": null, "gnaf_suburb": null, "gnaf_postcode": null, "distance_to_gnaf": null }, "geometry": { "type": "Point", "coordinates": [ 130.851932, -12.389529999604052 ] } },
{ "type": "Feature", "properties": { "objectid": 2466, "feature_type": "PETROL STATION", "industry_id": "411882", "station_name": "MOBIL TI TREE WELL", "station_owner": "7-ELEVEN PTY LTD", "station_description": "AN ESTABLISHMENT WHERE A RANGE OF FUEL PRODUCTS CAN BE PURCHASED BY MOTORISTS", "station_address": "STUART HIGHWAY", "station_suburb": "TI TREE", "station_postcode": "0872", "station_state": "NT", "operational_status": "OPERATIONAL", "spatial_confidence": "5", "gnaf_assignment_method": "AS RECEIVED – NO GNAF MATCH", "station_revised_date": "13/07/2012", "gnaf_formatted_address": null, "gnaf_address_detail_pid": null, "gnaf_confidence": null, "gnaf_suburb": null, "gnaf_postcode": null, "distance_to_gnaf": null }, "geometry": { "type": "Point", "coordinates": [ 133.416571, -22.130722999340836 ] } }
]
}
